     3.02           N: GNSS NAV DATA    M: Mixed            RINEX VERSION / TYPE
RTKCONV-EX 2.5.0                        20251108 141620 UTC PGM / RUN BY / DATE 
format: u-blox UBX                                          COMMENT             
log: Y:\blockx.ubx                                          COMMENT             
                                                            END OF HEADER       
S37 2025 11 08 14 13 04 -.443309545517D-06  .000000000000D+00  .569589000000D+06
     -.253478178400D+05  .996875000000D-03  .000000000000D+00  .100000000000D+01
      .337065540000D+05  .903125000000D-03  .000000000000D+00  .819200000000D+04
     -.132312000000D+02 -.220400000000D-02  .000000000000D+00  .000000000000D+00
S28 2025 11 08 14 12 16  .000000000000D+00  .000000000000D+00  .569599000000D+06
      .510276376000D+04  .256250000000D-04  .225000000000D-06  .100000000000D+01
      .418559123200D+05  .148562500000D-02  .125000000000D-07  .819200000000D+04
     -.567960000000D+01 -.760000000000D-04  .000000000000D+00  .000000000000D+00
R11 2025 11 08 14 15 00  .289920717478D-05 -.181898940355D-11  .569580000000D+06
     -.693437744141D+04 -.481694221497D+00 -.279396772385D-08  .000000000000D+00
      .226169160156D+05  .122060775757D+01 -.186264514923D-08  .000000000000D+00
      .952548437500D+04 -.325310325623D+01  .000000000000D+00  .000000000000D+00
R22 2025 11 08 14 15 00  .945692881942D-04  .181898940355D-11  .569580000000D+06
      .643191162109D+04 -.624824523926D+00 -.931322574615D-09  .000000000000D+00
      .220922622070D+05 -.137678813934D+01 -.186264514923D-08 -.300000000000D+01
      .110383061523D+05  .312873268127D+01 -.931322574615D-09  .000000000000D+00
R21 2025 11 08 14 15 00 -.252805650234D-03 -.363797880709D-11  .569580000000D+06
     -.672224853516D+04 -.155632209778D+01 -.465661287308D-08  .000000000000D+00
      .922173388672D+04 -.271038722992D+01  .000000000000D+00  .400000000000D+01
      .228239790039D+05  .633661270142D+00  .000000000000D+00  .000000000000D+00
R10 2025 11 08 14 15 00 -.405519269407D-03 -.454747350886D-11  .569580000000D+06
     -.144899111328D+05  .625153541565D+00 -.931322574615D-09  .000000000000D+00
      .195331850586D+05 -.879878997803D+00 -.931322574615D-09 -.700000000000D+01
     -.784283398438D+04 -.334397697449D+01  .279396772385D-08  .000000000000D+00
R12 2025 11 08 14 15 00  .613695010543D-04  .909494701773D-12  .569580000000D+06
      .577728808594D+04 -.138559150696D+01 -.186264514923D-08  .000000000000D+00
      .115525883789D+05  .267082786560D+01 -.931322574615D-09 -.100000000000D+01
      .220176293945D+05 -.103776741028D+01 -.186264514923D-08  .000000000000D+00
E18 2025 11 08 14 00 00  .209166476270D-02  .426467750003D-10  .000000000000D+00
      .590000000000D+02  .639687500000D+02  .621240162861D-08 -.116569853746D+01
      .268965959549D-05  .164390645223D+00  .388920307159D-05  .528933382225D+04
      .568800000000D+06  .633299350739D-06 -.207722960884D+01 -.261887907982D-05
      .857243468820D+00  .246125000000D+03  .298118625362D+01 -.884786854924D-08
      .147756154637D-08  .513000000000D+03  .239100000000D+04  .000000000000D+00
      .312000000000D+01  .130000000000D+03 -.325962901115D-08 -.419095158577D-08
      .569605000000D+06  .000000000000D+00
E13 2025 11 08 14 00 00 -.427193590440D-04 -.596855898038D-12  .000000000000D+00
      .590000000000D+02  .245312500000D+02  .267654006007D-08  .144771197186D+01
      .114552676678D-05  .361602753401D-03 -.269897282124D-05  .544060864067D+04
      .568800000000D+06 -.726431608200D-07 -.936993151766D+00  .186264514923D-08
      .998760612034D+00  .415593750000D+03 -.145471975615D+01 -.587667335846D-08
      .500020827875D-10  .513000000000D+03  .239100000000D+04  .000000000000D+00
      .312000000000D+01  .000000000000D+00  .232830643654D-08  .232830643654D-08
      .569605000000D+06  .000000000000D+00
E15 2025 11 08 13 30 00 -.212573795579D-03 -.267164068646D-11  .000000000000D+00
      .560000000000D+02  .198750000000D+02  .274475718730D-08  .205006888891D+01
      .821426510811D-06  .422485987656D-03 -.298395752907D-05  .544060778427D+04
      .567000000000D+06 -.484287738800D-07 -.937067017425D+00 -.223517417908D-07
      .998716026680D+00  .423437500000D+03 -.147915514747D+01 -.591524639376D-08
      .528593446610D-10  .513000000000D+03  .239100000000D+04  .000000000000D+00
      .312000000000D+01  .000000000000D+00  .302679836750D-08  .325962901115D-08
      .569605000000D+06  .000000000000D+00
C25 2025 11 08 14 00 00  .905426801182D-03  .115401022072D-10  .000000000000D+00
      .100000000000D+01 -.141562500000D+02  .445089968355D-08  .186268566221D+01
     -.883825123310D-06  .670386711136D-03  .659795477986D-05  .528265207672D+04
      .568800000000D+06 -.260770320892D-07  .256544234714D+01 -.209547579288D-07
      .945666525344D+00  .220734375000D+03  .827133941997D+00 -.688207238022D-08
     -.451447376024D-09  .000000000000D+00  .103500000000D+04  .000000000000D+00
      .200000000000D+01  .000000000000D+00  .240000000000D-08  .240000000000D-08
      .569580000000D+06  .100000000000D+01
C34 2025 11 08 14 00 00  .816151732579D-03  .790745247059D-11  .000000000000D+00
      .100000000000D+01  .174875000000D+03  .389587656461D-08  .603077712882D+00
      .865105539560D-05  .417528441176D-03  .338722020388D-05  .528262998199D+04
      .568800000000D+06 -.316649675369D-07 -.163710980646D+01 -.353902578354D-07
      .947206673794D+00  .284468750000D+03  .802461168814D+00 -.712315385081D-08
      .196436753808D-09  .000000000000D+00  .103500000000D+04  .000000000000D+00
      .200000000000D+01  .000000000000D+00 -.430000000000D-08 -.430000000000D-08
      .569580000000D+06  .100000000000D+01
C24 2025 11 08 14 00 00  .161637901329D-03 -.266586752673D-10  .000000000000D+00
      .100000000000D+01 -.154218750000D+02  .453911764390D-08  .264571681538D+01
     -.855885446072D-06  .874026911333D-03  .646943226457D-05  .528262843323D+04
      .568800000000D+06 -.977888703346D-08  .258827378630D+01 -.423751771450D-07
      .944092543987D+00  .219437500000D+03  .885465224209D+00 -.692814572794D-08
     -.509306928964D-09  .000000000000D+00  .103500000000D+04  .000000000000D+00
      .200000000000D+01  .000000000000D+00  .590000000000D-08  .590000000000D-08
      .569580000000D+06  .100000000000D+01
C07 2025 11 08 14 00 00  .313853612170D-03  .255768739521D-10  .000000000000D+00
      .100000000000D+01  .834265625000D+03  .818248369043D-09 -.220032209613D+01
      .273324549198D-04  .493090192322D-02  .215568579733D-04  .649292625046D+04
      .568800000000D+06 -.406987965107D-06 -.221626509001D+01 -.656582415104D-07
      .837153166561D+00 -.460906250000D+03 -.252976741766D+01 -.170399954985D-08
     -.432875173846D-09  .000000000000D+00  .103500000000D+04  .000000000000D+00
      .200000000000D+01  .000000000000D+00  .145000000000D-07  .110000000000D-08
      .569580000000D+06  .000000000000D+00
C09 2025 11 08 14 00 00  .249111326411D-04  .338902239605D-10  .000000000000D+00
      .100000000000D+01 -.459843750000D+02  .187579242000D-08 -.820096005502D+00
     -.170059502125D-05  .147394987289D-01  .552088022232D-05  .649301002121D+04
      .568800000000D+06 -.214204192162D-07  .220184798845D+01 -.731088221073D-07
      .952018303521D+00  .672500000000D+02 -.226585634078D+01 -.194615249363D-08
      .857178562071D-11  .000000000000D+00  .103500000000D+04  .000000000000D+00
      .200000000000D+01  .000000000000D+00  .660000000000D-08  .390000000000D-08
      .569580000000D+06  .000000000000D+00
C40 2025 11 08 14 00 00 -.182441202924D-03 -.296296320812D-11  .000000000000D+00
      .100000000000D+01  .953890625000D+03  .365372362083D-09 -.171318109746D+01
      .311243347824D-04  .445410539396D-02  .176895409822D-04  .649388353920D+04
      .568800000000D+06 -.306405127048D-06 -.206403109902D+01 -.138767063618D-06
      .963089167227D+00 -.300062500000D+03 -.297553066499D+01 -.173078637991D-08
     -.839320675361D-10  .000000000000D+00  .103500000000D+04  .000000000000D+00
      .200000000000D+01  .000000000000D+00  .280000000000D-08  .280000000000D-08
      .569580000000D+06  .100000000000D+01
C06 2025 11 08 14 00 00  .195903005078D-03 -.296305202596D-10  .000000000000D+00
      .100000000000D+01 -.569843750000D+02  .194115228536D-08 -.266259256435D+00
     -.200234353542D-05  .502419064287D-02  .550365075469D-05  .649306050301D+04
      .568800000000D+06  .223517417908D-07  .215480411400D+01 -.124797224998D-06
      .946745578108D+00  .596250000000D+02 -.252798879455D+01 -.194650965137D-08
      .589310261424D-10  .000000000000D+00  .103500000000D+04  .000000000000D+00
      .200000000000D+01  .000000000000D+00  .840000000000D-08 -.160000000000D-08
      .569580000000D+06  .000000000000D+00
C10 2025 11 08 14 00 00 -.283488188870D-03 -.203028704959D-10  .000000000000D+00
      .100000000000D+01  .844828125000D+03  .833248993879D-09 -.252320494271D+01
      .275834463537D-04  .107373048086D-01  .208835117519D-04  .649385077667D+04
      .568800000000D+06 -.430271029472D-06 -.222140096528D+01  .568106770515D-07
      .839475793319D+00 -.442375000000D+03 -.241906754348D+01 -.167078388057D-08
     -.391444876679D-09  .000000000000D+00  .103500000000D+04  .000000000000D+00
      .200000000000D+01  .000000000000D+00  .560000000000D-08  .300000000000D-08
      .569580000000D+06  .000000000000D+00
